[
    {
        "Altitude(m)": 611965.1741767876,
        "Argument of Periapsis(deg)": 0.0,
        "Eccentricity": 0.0,
        "Inclination(deg)": 60.0,
        "Latitude(deg)": 59.14012767733647,
        "Longitude(deg)": -121.03008929917206,
        "Mean Anomaly(deg)": 81.8182,
        "RAAN(deg)": 265.0,
        "Satellite Name": "Test1 1171",
        "Satellite Number": 1171,
        "Semi-Major Axis(m)": 6980739.136638005,
        "Time(s)": 0
    },
    {
        "Altitude(m)": 611995.7993520522,
        "Argument of Periapsis(deg)": 0.00010418945913296404,
        "Eccentricity": 0.0,
        "Inclination(deg)": 60.0,
        "Latitude(deg)": 59.28322657022648,
        "Longitude(deg)": -119.89672773434779,
        "Mean Anomaly(deg)": 82.43830614546187,
        "RAAN(deg)": 264.99957995086027,
        "Satellite Name": "Test1 1171",
        "Satellite Number": 1171,
        "Semi-Major Axis(m)": 6980739.136638005,
        "Time(s)": 10
    }
]